ONEWEB-0092             
1 45437U 20020P   26061.43210508 -.00000456  00000+0 -13213-2 0  9993
2 45437  87.8851  42.2908 0001916  73.9372 286.1966 13.11417500288790
ONEWEB-0085             
1 45438U 20020Q   26061.46856298  .00000577  00000+0  15913-2 0  9990
2 45438  87.8848  42.2880 0001858  83.5185 276.6154 13.11416225288684
ONEWEB-0096             
1 45439U 20020R   26061.47025837  .00000609  00000+0  16836-2 0  9990
2 45439  87.8856  42.2754 0001807  83.6957 276.4376 13.11415657288677
ONEWEB-0037             
1 45440U 20020S   26061.45075638  .00000003  00000+0 -27767-4 0  9990
2 45440  87.8864  42.2547 0001908  81.8835 278.2509 13.11417873288709
ONEWEB-0042             
1 45441U 20020T   26061.45994161  .00000370  00000+0  10073-2 0  9998
2 45441  87.8854  42.2751 0001785  83.0374 277.0957 13.11416779288675
ONEWEB-0098             
1 45442U 20020U   26061.45584147  .00000266  00000+0  71480-3 0  9992
2 45442  87.8852  42.2874 0001917  86.6398 273.4949 13.11417602288657
ONEWEB-0055             
1 45443U 20020V   26061.43888624 -.00000394  00000+0 -11484-2 0  9999
2 45443  87.8851  42.2907 0001890  86.3825 273.7519 13.11417947288621
ONEWEB-0093             
1 45444U 20020W   26061.64332831 -.00000005  00000+0 -51082-4 0  9996
2 45444  87.8856  42.2395 0001450  78.5777 281.5514 13.11413969288711
ONEWEB-0029             
1 45445U 20020X   26061.50669993 -.00000438  00000+0 -12720-2 0  9998
2 45445  87.8852  42.2786 0001701  85.8007 274.3316 13.11415782288678
ONEWEB-0068             
1 45446U 20020Y   26061.64305089  .00000031  00000+0  52680-4 0  9995
2 45446  87.8858  42.2419 0001660  86.2148 273.9170 13.11414501288630
ONEWEB-0046             
1 45447U 20020Z   26061.63471342  .00000424  00000+0  11607-2 0  9999
2 45447  87.8856  42.2504 0001734  77.6342 282.4980 13.11414222288641
ONEWEB-0063             
1 45448U 20020AA  26061.43463777 -.00000479  00000+0 -13861-2 0  9997
2 45448  87.8856  42.2878 0001885  77.2231 282.9108 13.11416906288701
ONEWEB-0019             
1 45449U 20020AB  26061.47350559  .00000576  00000+0  15880-2 0  9994
2 45449  87.8844  42.2749 0001979  88.4229 271.7125 13.11414841288555
ONEWEB-0094             
1 45450U 20020AC  26061.81634877 -.00000001  00000+0 -35639-4 0  9993
2 45450  87.9148  26.9620 0001758  87.2867 272.8466 13.17651754292302
ONEWEB-0087             
1 45451U 20020AD  26061.44467519 -.00000206  00000+0 -61711-3 0  9996
2 45451  87.8862  42.2519 0001573  87.6776 272.4532 13.11417605288596
ONEWEB-0082             
1 45452U 20020AE  26061.44142031 -.00000324  00000+0 -95055-3 0  9995
2 45452  87.8860  42.2768 0001656  88.1688 271.9629 13.11417920288682
ONEWEB-0050             
1 45453U 20020AF  26061.50489180  .00002352  00000+0  24205-3 0  9992
2 45453  88.9192 247.7391 0004086  37.2657 322.8855 14.89970063324493
