[{"OBJECT_NAME":"ONEWEB-0092","OBJECT_ID":"2020-020P","EPOCH":"2026-03-02T10:22:13.878912","MEAN_MOTION":13.114175,"ECCENTRICITY":0.00019163,"INCLINATION":87.8851,"RA_OF_ASC_NODE":42.2908,"ARG_OF_PERICENTER":73.9372,"MEAN_ANOMALY":286.1966,"EPHEMERIS_TYPE":0,"CLASSIFICATION_TYPE":"U","NORAD_CAT_ID":45437,"ELEMENT_SET_NO":999,"REV_AT_EPOCH":28879,"BSTAR":-0.0013213328,"MEAN_MOTION_DOT":-4.56e-6,"MEAN_MOTION_DDOT":0},{"OBJECT_NAME":"ONEWEB-0085","OBJECT_ID":"2020-020Q","EPOCH":"2026-03-02T11:14:43.841472","MEAN_MOTION":13.11416225,"ECCENTRICITY":0.00018587,"INCLINATION":87.8848,"RA_OF_ASC_NODE":42.288,"ARG_OF_PERICENTER":83.5185,"MEAN_ANOMALY":276.6154,"EPHEMERIS_TYPE":0,"CLASSIFICATION_TYPE":"U","NORAD_CAT_ID":45438,"ELEMENT_SET_NO":999,"REV_AT_EPOCH":28868,"BSTAR":0.0015912875,"MEAN_MOTION_DOT":5.77e-6,"MEAN_MOTION_DDOT":0},{"OBJECT_NAME":"ONEWEB-0096","OBJECT_ID":"2020-020R","EPOCH":"2026-03-02T11:17:10.323168","MEAN_MOTION":13.11415657,"ECCENTRICITY":0.00018073,"INCLINATION":87.8856,"RA_OF_ASC_NODE":42.2754,"ARG_OF_PERICENTER":83.6957,"MEAN_ANOMALY":276.4376,"EPHEMERIS_TYPE":0,"CLASSIFICATION_TYPE":"U","NORAD_CAT_ID":45439,"ELEMENT_SET_NO":999,"REV_AT_EPOCH":28867,"BSTAR":0.0016836179,"MEAN_MOTION_DOT":6.09e-6,"MEAN_MOTION_DDOT":0},{"OBJECT_NAME":"ONEWEB-0037","OBJECT_ID":"2020-020S","EPOCH":"2026-03-02T10:49:05.351232","MEAN_MOTION":13.11417873,"ECCENTRICITY":0.00019087,"INCLINATION":87.8864,"RA_OF_ASC_NODE":42.2547,"ARG_OF_PERICENTER":81.8835,"MEAN_ANOMALY":278.2509,"EPHEMERIS_TYPE":0,"CLASSIFICATION_TYPE":"U","NORAD_CAT_ID":45440,"ELEMENT_SET_NO":999,"REV_AT_EPOCH":28870,"BSTAR":-2.7767456e-5,"MEAN_MOTION_DOT":3.0e-8,"MEAN_MOTION_DDOT":0},{"OBJECT_NAME":"ONEWEB-0042","OBJECT_ID":"2020-020T","EPOCH":"2026-03-02T11:02:18.955104","MEAN_MOTION":13.11416779,"ECCENTRICITY":0.00017852,"INCLINATION":87.8854,"RA_OF_ASC_NODE":42.2751,"ARG_OF_PERICENTER":83.0374,"MEAN_ANOMALY":277.0957,"EPHEMERIS_TYPE":0,"CLASSIFICATION_TYPE":"U","NORAD_CAT_ID":45441,"ELEMENT_SET_NO":999,"REV_AT_EPOCH":28867,"BSTAR":0.0010072777,"MEAN_MOTION_DOT":3.7e-6,"MEAN_MOTION_DDOT":0},{"OBJECT_NAME":"ONEWEB-0098","OBJECT_ID":"2020-020U","EPOCH":"2026-03-02T10:56:24.703008","MEAN_MOTION":13.11417602,"ECCENTRICITY":0.00019172,"INCLINATION":87.8852,"RA_OF_ASC_NODE":42.2874,"ARG_OF_PERICENTER":86.6398,"MEAN_ANOMALY":273.4949,"EPHEMERIS_TYPE":0,"CLASSIFICATION_TYPE":"U","NORAD_CAT_ID":45442,"ELEMENT_SET_NO":999,"REV_AT_EPOCH":28865,"BSTAR":0.00071479919,"MEAN_MOTION_DOT":2.66e-6,"MEAN_MOTION_DDOT":0},{"OBJECT_NAME":"ONEWEB-0055","OBJECT_ID":"2020-020V","EPOCH":"2026-03-02T10:31:59.771136","MEAN_MOTION":13.11417947,"ECCENTRICITY":0.00018903,"INCLINATION":87.8851,"RA_OF_ASC_NODE":42.2907,"ARG_OF_PERICENTER":86.3825,"MEAN_ANOMALY":273.7519,"EPHEMERIS_TYPE":0,"CLASSIFICATION_TYPE":"U","NORAD_CAT_ID":45443,"ELEMENT_SET_NO":999,"REV_AT_EPOCH":28862,"BSTAR":-0.0011483567,"MEAN_MOTION_DOT":-3.94e-6,"MEAN_MOTION_DDOT":0},{"OBJECT_NAME":"ONEWEB-0093","OBJECT_ID":"2020-020W","EPOCH":"2026-03-02T15:26:23.565984","MEAN_MOTION":13.11413969,"ECCENTRICITY":0.000145,"INCLINATION":87.8856,"RA_OF_ASC_NODE":42.2395,"ARG_OF_PERICENTER":78.5777,"MEAN_ANOMALY":281.5514,"EPHEMERIS_TYPE":0,"CLASSIFICATION_TYPE":"U","NORAD_CAT_ID":45444,"ELEMENT_SET_NO":999,"REV_AT_EPOCH":28871,"BSTAR":-5.1082e-5,"MEAN_MOTION_DOT":-5.0e-8,"MEAN_MOTION_DDOT":0},{"OBJECT_NAME":"ONEWEB-0029","OBJECT_ID":"2020-020X","EPOCH":"2026-03-02T12:09:38.873952","MEAN_MOTION":13.11415782,"ECCENTRICITY":0.00017019,"INCLINATION":87.8852,"RA_OF_ASC_NODE":42.2786,"ARG_OF_PERICENTER":85.8007,"MEAN_ANOMALY":274.3316,"EPHEMERIS_TYPE":0,"CLASSIFICATION_TYPE":"U","NORAD_CAT_ID":45445,"ELEMENT_SET_NO":999,"REV_AT_EPOCH":28867,"BSTAR":-0.0012720395,"MEAN_MOTION_DOT":-4.38e-6,"MEAN_MOTION_DDOT":0},{"OBJECT_NAME":"ONEWEB-0068","OBJECT_ID":"2020-020Y","EPOCH":"2026-03-02T15:25:59.596896","MEAN_MOTION":13.11414501,"ECCENTRICITY":0.000166,"INCLINATION":87.8858,"RA_OF_ASC_NODE":42.2419,"ARG_OF_PERICENTER":86.2148,"MEAN_ANOMALY":273.917,"EPHEMERIS_TYPE":0,"CLASSIFICATION_TYPE":"U","NORAD_CAT_ID":45446,"ELEMENT_SET_NO":999,"REV_AT_EPOCH":28863,"BSTAR":5.268e-5,"MEAN_MOTION_DOT":3.1e-7,"MEAN_MOTION_DDOT":0},{"OBJECT_NAME":"ONEWEB-0046","OBJECT_ID":"2020-020Z","EPOCH":"2026-03-02T15:13:59.239488","MEAN_MOTION":13.11414222,"ECCENTRICITY":0.0001734,"INCLINATION":87.8856,"RA_OF_ASC_NODE":42.2504,"ARG_OF_PERICENTER":77.6342,"MEAN_ANOMALY":282.498,"EPHEMERIS_TYPE":0,"CLASSIFICATION_TYPE":"U","NORAD_CAT_ID":45447,"ELEMENT_SET_NO":999,"REV_AT_EPOCH":28864,"BSTAR":0.0011607,"MEAN_MOTION_DOT":4.24e-6,"MEAN_MOTION_DDOT":0},{"OBJECT_NAME":"ONEWEB-0063","OBJECT_ID":"2020-020AA","EPOCH":"2026-03-02T10:25:52.703328","MEAN_MOTION":13.11416906,"ECCENTRICITY":0.00018854,"INCLINATION":87.8856,"RA_OF_ASC_NODE":42.2878,"ARG_OF_PERICENTER":77.2231,"MEAN_ANOMALY":282.9108,"EPHEMERIS_TYPE":0,"CLASSIFICATION_TYPE":"U","NORAD_CAT_ID":45448,"ELEMENT_SET_NO":999,"REV_AT_EPOCH":28870,"BSTAR":-0.0013860961,"MEAN_MOTION_DOT":-4.79e-6,"MEAN_MOTION_DDOT":0},{"OBJECT_NAME":"ONEWEB-0019","OBJECT_ID":"2020-020AB","EPOCH":"2026-03-02T11:21:50.882976","MEAN_MOTION":13.11414841,"ECCENTRICITY":0.00019794,"INCLINATION":87.8844,"RA_OF_ASC_NODE":42.2749,"ARG_OF_PERICENTER":88.4229,"MEAN_ANOMALY":271.7125,"EPHEMERIS_TYPE":0,"CLASSIFICATION_TYPE":"U","NORAD_CAT_ID":45449,"ELEMENT_SET_NO":999,"REV_AT_EPOCH":28855,"BSTAR":0.001588001,"MEAN_MOTION_DOT":5.76e-6,"MEAN_MOTION_DDOT":0},{"OBJECT_NAME":"ONEWEB-0094","OBJECT_ID":"2020-020AC","EPOCH":"2026-03-02T19:35:32.533728","MEAN_MOTION":13.17651754,"ECCENTRICITY":0.0001758,"INCLINATION":87.9148,"RA_OF_ASC_NODE":26.962,"ARG_OF_PERICENTER":87.2867,"MEAN_ANOMALY":272.8466,"EPHEMERIS_TYPE":0,"CLASSIFICATION_TYPE":"U","NORAD_CAT_ID":45450,"ELEMENT_SET_NO":999,"REV_AT_EPOCH":29230,"BSTAR":-3.5639e-5,"MEAN_MOTION_DOT":-1.0e-8,"MEAN_MOTION_DDOT":0},{"OBJECT_NAME":"ONEWEB-0087","OBJECT_ID":"2020-020AD","EPOCH":"2026-03-02T10:40:19.936416","MEAN_MOTION":13.11417605,"ECCENTRICITY":0.00015735,"INCLINATION":87.8862,"RA_OF_ASC_NODE":42.2519,"ARG_OF_PERICENTER":87.6776,"MEAN_ANOMALY":272.4532,"EPHEMERIS_TYPE":0,"CLASSIFICATION_TYPE":"U","NORAD_CAT_ID":45451,"ELEMENT_SET_NO":999,"REV_AT_EPOCH":28859,"BSTAR":-0.00061711394,"MEAN_MOTION_DOT":-2.06e-6,"MEAN_MOTION_DDOT":0},{"OBJECT_NAME":"ONEWEB-0082","OBJECT_ID":"2020-020AE","EPOCH":"2026-03-02T10:35:38.714784","MEAN_MOTION":13.1141792,"ECCENTRICITY":0.00016567,"INCLINATION":87.886,"RA_OF_ASC_NODE":42.2768,"ARG_OF_PERICENTER":88.1688,"MEAN_ANOMALY":271.9629,"EPHEMERIS_TYPE":0,"CLASSIFICATION_TYPE":"U","NORAD_CAT_ID":45452,"ELEMENT_SET_NO":999,"REV_AT_EPOCH":28868,"BSTAR":-0.00095054563,"MEAN_MOTION_DOT":-3.24e-6,"MEAN_MOTION_DDOT":0},{"OBJECT_NAME":"ONEWEB-0050","OBJECT_ID":"2020-020AF","EPOCH":"2026-03-02T12:07:02.651520","MEAN_MOTION":14.89970063,"ECCENTRICITY":0.00040863,"INCLINATION":88.9192,"RA_OF_ASC_NODE":247.7391,"ARG_OF_PERICENTER":37.2657,"MEAN_ANOMALY":322.8855,"EPHEMERIS_TYPE":0,"CLASSIFICATION_TYPE":"U","NORAD_CAT_ID":45453,"ELEMENT_SET_NO":999,"REV_AT_EPOCH":32449,"BSTAR":0.00024204736,"MEAN_MOTION_DOT":2.352e-5,"MEAN_MOTION_DDOT":0}]
